NORAD_CAT_ID,OBJECT_NAME,OBJECT_TYPE,EPOCH,MEAN_MOTION,ECCENTRICITY,INCLINATION,RA_OF_ASC_NODE,ARG_OF_PERICENTER,MEAN_ANOMALY,BSTAR,MEAN_MOTION_DOT,MEAN_MOTION_DDOT,TLE_LINE0,TLE_LINE1,TLE_LINE2,SEMIMAJOR_AXIS,PERIOD,APOGEE,PERIGEE,DECAYED
54167.0,STARLINK-5243,PAYLOAD,2023-01-29 19:37:18,15.08836484,0.0001416,53.2188,68.5134,87.7421,272.3733,4.2396e-05,3.87e-06,0.0,0 STARLINK-5243,1 54167U 22141L   23029.81757354  .00000387  00000-0  42396-4 0  9995,2 54167  53.2188  68.5134 0001416  87.7421 272.3733 15.08836484 14391,6917.891,95.438,540.736,538.777,0.0
54167.0,STARLINK-5243,PAYLOAD,2023-01-30 03:34:14,15.08830493,0.0001279,53.2177,67.0276,88.4202,271.6937,0.00010805,1.432e-05,0.0,0 STARLINK-5243,1 54167U 22141L   23030.14877653  .00001432  00000-0  10805-3 0  9999,2 54167  53.2177  67.0276 0001279  88.4202 271.6937 15.08830493 14439,6917.909,95.438,540.659,538.89,0.0
54167.0,STARLINK-5243,PAYLOAD,2023-01-30 09:55:46,15.08837623,0.0001189,53.2183,65.8389,86.8264,273.2864,5.8661e-05,6.46e-06,0.0,0 STARLINK-5243,1 54167U 22141L   23030.41373452  .00000646  00000-0  58661-4 0  9996,2 54167  53.2183  65.8389 0001189  86.8264 273.2864 15.08837623 14481,6917.888,95.438,540.575,538.93,0.0
54167.0,STARLINK-5243,PAYLOAD,2023-01-30 19:28:05,15.08840307,0.0001289,53.2188,64.055,85.8412,274.2727,8.9133e-05,1.131e-05,0.0,0 STARLINK-5243,1 54167U 22141L   23030.81117278  .00001131  00000-0  89133-4 0  9990,2 54167  53.2188  64.0550 0001289  85.8412 274.2727 15.08840307 14541,6917.879,95.438,540.636,538.853,0.0
54167.0,STARLINK-5243,PAYLOAD,2023-01-31 01:49:37,15.08843146,0.0001363,53.2192,62.8657,88.0611,272.0538,6.0453e-05,6.74e-06,0.0,0 STARLINK-5243,1 54167U 22141L   23031.07613189  .00000674  00000-0  60453-4 0  9996,2 54167  53.2192  62.8657 0001363  88.0611 272.0538 15.08843146 14572,6917.871,95.437,540.679,538.793,0.0
54167.0,STARLINK-5243,PAYLOAD,2023-01-31 11:21:56,15.08849382,0.000123,53.2183,61.0813,88.1796,271.9337,0.00011432,1.532e-05,0.0,0 STARLINK-5243,1 54167U 22141L   23031.47356501  .00001532  00000-0  11432-3 0  9998,2 54167  53.2183  61.0813 0001230  88.1796 271.9337 15.08849382 14646,6917.852,95.437,540.568,538.866,0.0
54167.0,STARLINK-5243,PAYLOAD,2023-01-31 19:18:51,15.0884749,0.0001052,53.2165,59.5933,97.862,262.2491,2.1888e-05,6.1e-07,0.0,0 STARLINK-5243,1 54167U 22141L   23031.80476644  .00000061  00000-0  21888-4 0  9999,2 54167  53.2165  59.5933 0001052  97.8620 262.2491 15.08847490 14693,6917.857,95.437,540.45,538.995,0.0
54167.0,STARLINK-5243,PAYLOAD,2023-02-01 08:01:57,15.08842725,0.0001198,53.2173,57.2141,92.4322,267.6807,0.00010352,1.36e-05,0.0,0 STARLINK-5243,1 54167U 22141L   23032.33468853  .00001360  00000-0  10352-3 0  9997,2 54167  53.2173  57.2141 0001198  92.4322 267.6807 15.08842725 14763,6917.872,95.437,540.566,538.908,0.0
54167.0,STARLINK-5243,PAYLOAD,2023-02-02 11:03:30,15.0885172,0.000137,53.2171,52.1592,90.929,269.1859,-0.00010333,-1.933e-05,0.0,0 STARLINK-5243,1 54167U 22141L   23033.46076673 -.00001933  00000-0 -10333-3 0  9994,2 54167  53.2171  52.1592 0001370  90.9290 269.1859 15.08851720 14943,6917.845,95.437,540.657,538.762,0.0
54167.0,STARLINK-5243,PAYLOAD,2023-02-03 01:21:59,15.0883688,0.0001313,53.2169,49.4822,89.2379,270.8763,9.3307e-06,-1.39e-06,0.0,0 STARLINK-5243,1 54167U 22141L   23034.05693416 -.00000139  00000-0  93307-5 0  9990,2 54167  53.2169  49.4822 0001313  89.2379 270.8763 15.08836880 15024,6917.89,95.438,540.663,538.847,0.0
54167.0,STARLINK-5243,PAYLOAD,2023-02-03 07:43:31,15.08839069,0.0001443,53.2179,48.2928,101.0805,259.035,2.311e-05,8e-07,0.0,0 STARLINK-5243,1 54167U 22141L   23034.32189226  .00000080  00000-0  23110-4 0  9997,2 54167  53.2179  48.2928 0001443 101.0805 259.0350 15.08839069 15078,6917.883,95.438,540.746,538.75,0.0
54167.0,STARLINK-5243,PAYLOAD,2023-02-04 07:34:18,15.08843875,0.0001446,53.2183,43.8319,103.6718,256.4436,9.9783e-05,1.301e-05,0.0,0 STARLINK-5243,1 54167U 22141L   23035.31548796  .00001301  00000-0  99783-4 0  9994,2 54167  53.2183  43.8319 0001446 103.6718 256.4436 15.08843875 15214,6917.869,95.437,540.734,538.733,0.0
54167.0,STARLINK-5243,PAYLOAD,2023-02-04 23:28:10,15.08836665,0.0001389,53.2186,40.8588,110.8786,249.2355,2.7742e-05,1.54e-06,0.0,0 STARLINK-5243,1 54167U 22141L   23035.97789545  .00000154  00000-0  27742-4 0  9996,2 54167  53.2186  40.8588 0001389 110.8786 249.2355 15.08836665 15313,6917.891,95.438,540.716,538.795,0.0
54167.0,STARLINK-5243,PAYLOAD,2023-02-05 05:49:42,15.08835588,0.0001342,53.2189,39.6714,96.8803,263.2341,2.1499e-05,5.4e-07,0.0,0 STARLINK-5243,1 54167U 22141L   23036.24285773  .00000054  00000-0  21499-4 0  9993,2 54167  53.2189  39.6714 0001342  96.8803 263.2341 15.08835588 15364,6917.894,95.438,540.687,538.83,0.0
54167.0,STARLINK-5243,PAYLOAD,2023-02-06 00:54:20,15.08843015,0.0001324,53.2191,36.102,100.4164,259.6977,-1.4075e-05,-5.12e-06,0.0,0 STARLINK-5243,1 54167U 22141L   23037.03773580 -.00000512  00000-0 -14075-4 0  9992,2 54167  53.2191  36.1020 0001324 100.4164 259.6977 15.08843015 15471,6917.871,95.437,540.652,538.82,0.0
54167.0,STARLINK-5243,PAYLOAD,2023-02-06 08:51:15,15.08851368,0.0001457,53.218,34.6139,104.1122,256.0032,4.5055e-05,4.29e-06,0.0,0 STARLINK-5243,1 54167U 22141L   23037.36892818  .00000429  00000-0  45055-4 0  9991,2 54167  53.2180  34.6139 0001457 104.1122 256.0032 15.08851368 15524,6917.846,95.437,540.719,538.703,0.0
54167.0,STARLINK-5243,PAYLOAD,2023-02-07 03:55:53,15.08843679,0.0001241,53.2192,31.047,102.2348,257.8783,0.00012565,1.713e-05,0.0,0 STARLINK-5243,1 54167U 22141L   23038.16381054  .00001713  00000-0  12565-3 0  9991,2 54167  53.2192  31.0470 0001241 102.2348 257.8783 15.08843679 15647,6917.869,95.437,540.593,538.876,0.0
54167.0,STARLINK-5243,PAYLOAD,2023-02-07 08:42:02,15.08850953,0.0001112,53.2179,30.1539,92.0529,268.0591,0.0001925,2.778e-05,0.0,0 STARLINK-5243,1 54167U 22141L   23038.36252494  .00002778  00000-0  19250-3 0  9998,2 54167  53.2179  30.1539 0001112  92.0529 268.0591 15.08850953 15680,6917.847,95.437,540.481,538.943,0.0
54167.0,STARLINK-5243,PAYLOAD,2023-02-08 03:46:40,15.08844028,0.0001268,53.2189,26.5863,107.062,253.0511,6.8445e-05,8.02e-06,0.0,0 STARLINK-5243,1 54167U 22141L   23039.15741130  .00000802  00000-0  68445-4 0  9993,2 54167  53.2189  26.5863 0001268 107.0620 253.0511 15.08844028 15795,6917.868,95.437,540.61,538.856,0.0
54167.0,STARLINK-5243,PAYLOAD,2023-02-08 05:22:03,15.08847328,0.0001277,53.2171,26.2877,98.7403,261.3734,0.00010122,1.324e-05,0.0,0 STARLINK-5243,1 54167U 22141L   23039.22364974  .00001324  00000-0  10122-3 0  9996,2 54167  53.2171  26.2877 0001277  98.7403 261.3734 15.08847328 15811,6917.858,95.437,540.606,538.84,0.0
54167.0,STARLINK-5243,PAYLOAD,2023-02-09 03:37:27,15.08841743,0.000128,53.2183,22.1231,114.4862,245.6263,2.3274e-06,-2.51e-06,0.0,0 STARLINK-5243,1 54167U 22141L   23040.15101346 -.00000251  00000-0  23274-5 0  9995,2 54167  53.2183  22.1231 0001280 114.4862 245.6263 15.08841743 15943,6917.875,95.437,540.626,538.855,0.0
54167.0,STARLINK-5243,PAYLOAD,2023-02-09 05:12:50,15.08843901,0.0001304,53.2175,21.8264,87.7008,272.4134,7.0575e-05,8.36e-06,0.0,0 STARLINK-5243,1 54167U 22141L   23040.21725397  .00000836  00000-0  70575-4 0  9993,2 54167  53.2175  21.8264 0001304  87.7008 272.4134 15.08843901 15962,6917.868,95.437,540.636,538.831,0.0
54167.0,STARLINK-5243,PAYLOAD,2023-02-10 03:28:14,15.08848569,0.0001477,53.2178,17.6675,91.3703,268.7459,0.00020347,2.952e-05,0.0,0 STARLINK-5243,1 54167U 22141L   23041.14461361  .00002952  00000-0  20347-3 0  9996,2 54167  53.2178  17.6675 0001477  91.3703 268.7459 15.08848569 16108,6917.854,95.437,540.741,538.697,0.0
54167.0,STARLINK-5243,PAYLOAD,2023-02-10 09:49:46,15.08856645,0.0001436,53.2174,16.4768,94.7847,265.3309,0.00032238,4.849e-05,0.0,0 STARLINK-5243,1 54167U 22141L   23041.40956861  .00004849  00000-0  32238-3 0  9998,2 54167  53.2174  16.4768 0001436  94.7847 265.3309 15.08856645 16139,6917.83,95.437,540.688,538.701,0.0
54167.0,STARLINK-5243,PAYLOAD,2023-02-11 01:43:40,15.08822065,0.0001515,53.2172,13.5023,101.0625,259.0538,-0.00013722,-2.47e-05,0.0,0 STARLINK-5243,1 54167U 22141L   23042.07199211 -.00002470  00000-0 -13722-3 0  9997,2 54167  53.2172  13.5023 0001515 101.0625 259.0538 15.08822065 16237,6917.935,95.439,540.848,538.752,0.0
54167.0,STARLINK-5243,PAYLOAD,2023-02-11 09:40:35,15.08852394,0.0001191,53.2177,12.0155,95.7707,264.3421,0.00088998,0.00013909,0.0,0 STARLINK-5243,1 54167U 22141L   23042.40318464  .00013909  00000-0  88998-3 0  9991,2 54167  53.2177  12.0155 0001191  95.7707 264.3421 15.08852394 16285,6917.843,95.437,540.531,538.884,0.0
54167.0,STARLINK-5243,PAYLOAD,2023-02-12 07:55:58,15.088522,0.0001514,53.2171,7.8519,83.7836,276.3328,0.00045465,6.958e-05,0.0,0 STARLINK-5243,1 54167U 22141L   23043.33054111  .00006958  00000-0  45465-3 0  9998,2 54167  53.2171   7.8519 0001514  83.7836 276.3328 15.08852200 16425,6917.843,95.437,540.755,538.661,0.0
54167.0,STARLINK-5243,PAYLOAD,2023-02-12 14:17:31,15.08838663,0.0001781,53.2169,6.6615,88.6322,271.4875,0.00014205,1.973e-05,0.0,0 STARLINK-5243,1 54167U 22141L   23043.59550482  .00001973  00000-0  14205-3 0  9998,2 54167  53.2169   6.6615 0001781  88.6322 271.4875 15.08838663 16471,6917.884,95.438,540.982,538.517,0.0
54167.0,STARLINK-5243,PAYLOAD,2023-02-13 07:46:45,15.08854821,0.0002226,53.2174,3.3944,123.1986,236.9219,0.00054898,8.463e-05,0.0,0 STARLINK-5243,1 54167U 22141L   23044.32413908  .00008463  00000-0  54898-3 0  9994,2 54167  53.2174   3.3944 0002226 123.1986 236.9219 15.08854821 16575,6917.835,95.437,541.24,538.16,0.0
54167.0,STARLINK-5243,PAYLOAD,2023-02-13 14:08:19,15.08833709,0.0004095,53.2174,2.2028,87.6463,272.4998,0.00039526,6.007e-05,0.0,0 STARLINK-5243,1 54167U 22141L   23044.58911390  .00006007  00000-0  39526-3 0  9993,2 54167  53.2174   2.2028 0004095  87.6463 272.4998 15.08833709 16623,6917.9,95.438,542.597,536.932,0.0
